start=new Date('2022-11-22T00:00:00.000Z').valueOf();
sats=[{"OBJECT_TYPE":"PAYLOAD","MEAN_ELEMENT_THEORY":"SGP4","TLE_LINE2":"2 47568  53.0565  47.2095 0001361  76.8730 283.2410 15.06399933 99023","DECAY_DATE":null,"SITE":"AFETR","REV_AT_EPOCH":"9902","MEAN_MOTION":"15.06399933","EPHEMERIS_TYPE":"0","ELEMENT_SET_NO":"999","NORAD_CAT_ID":"47568","BSTAR":"0.00008760800000","RA_OF_ASC_NODE":"47.2095","SEMIMAJOR_AXIS":"6925.349","MEAN_MOTION_DOT":"0.00001024","LAUNCH_DATE":"2021-02-04","OBJECT_NAME":"STARLINK-1967","MEAN_MOTION_DDOT":"0.0000000000000","ARG_OF_PERICENTER":"76.8730","CLASSIFICATION_TYPE":"U","INCLINATION":"53.0565","COUNTRY_CODE":"US","EPOCH":"2022-11-21T13:16:42.576384","MEAN_ANOMALY":"283.2410","FILE":"3666658","GP_ID":"218431541","REF_FRAME":"TEME","TIME_SYSTEM":"UTC","CENTER_NAME":"EARTH","RCS_SIZE":"LARGE","PERIOD":"95.592","ECCENTRICITY":"0.00013610","PERIAPSIS":"546.271","OBJECT_ID":"2021-009W","TLE_LINE1":"1 47568U 21009W   22325.55327056  .00001024  00000-0  87608-4 0  9999","APOAPSIS":"548.156"},{"MEAN_MOTION":"15.86007126","EPHEMERIS_TYPE":"0","MEAN_ELEMENT_THEORY":"SGP4","OBJECT_TYPE":"PAYLOAD","TLE_LINE2":"2 47569  53.0505 252.8688 0007726  99.9125 260.2771 15.86007126101167","SITE":"AFETR","DECAY_DATE":null,"REV_AT_EPOCH":"10116","COUNTRY_CODE":"US","EPOCH":"2022-11-21T02:22:52.561344","MEAN_ANOMALY":"260.2771","FILE":"3666297","GP_ID":"218398571","REF_FRAME":"TEME","TIME_SYSTEM":"UTC","CENTER_NAME":"EARTH","PERIAPSIS":"308.322","PERIOD":"90.794","RCS_SIZE":"LARGE","ECCENTRICITY":"0.00077260","APOAPSIS":"318.662","TLE_LINE1":"1 47569U 21009X   22325.09921946  .00219782  00000-0  85298-3 0  9991","OBJECT_ID":"2021-009X","ELEMENT_SET_NO":"999","BSTAR":"0.00085298000000","NORAD_CAT_ID":"47569","RA_OF_ASC_NODE":"252.8688","LAUNCH_DATE":"2021-02-04","MEAN_MOTION_DOT":"0.00219782","SEMIMAJOR_AXIS":"6691.627","OBJECT_NAME":"STARLINK-1968","CLASSIFICATION_TYPE":"U","MEAN_MOTION_DDOT":"0.0000000000000","ARG_OF_PERICENTER":"99.9125","INCLINATION":"53.0505"},{"MEAN_MOTION":"15.06404971","EPHEMERIS_TYPE":"0","MEAN_ELEMENT_THEORY":"SGP4","OBJECT_TYPE":"PAYLOAD","TLE_LINE2":"2 47570  53.0551   6.9316 0001577  68.9788 291.1369 15.06404971 99595","SITE":"AFETR","DECAY_DATE":null,"REV_AT_EPOCH":"9959","COUNTRY_CODE":"US","EPOCH":"2022-11-21T14:41:37.619808","MEAN_ANOMALY":"291.1369","FILE":"3666658","REF_FRAME":"TEME","GP_ID":"218432540","CENTER_NAME":"EARTH","TIME_SYSTEM":"UTC","PERIAPSIS":"546.106","PERIOD":"95.592","RCS_SIZE":"LARGE","ECCENTRICITY":"0.00015770","APOAPSIS":"548.290","TLE_LINE1":"1 47570U 21009Y   22325.61224097  .00001107  00000-0  93221-4 0  9990","OBJECT_ID":"2021-009Y","ELEMENT_SET_NO":"999","BSTAR":"0.00009322100000","NORAD_CAT_ID":"47570","RA_OF_ASC_NODE":"6.9316","LAUNCH_DATE":"2021-02-04","SEMIMAJOR_AXIS":"6925.333","MEAN_MOTION_DOT":"0.00001107","OBJECT_NAME":"STARLINK-1969","CLASSIFICATION_TYPE":"U","ARG_OF_PERICENTER":"68.9788","MEAN_MOTION_DDOT":"0.0000000000000","INCLINATION":"53.0551"},{"OBJECT_TYPE":"PAYLOAD","MEAN_ELEMENT_THEORY":"SGP4","DECAY_DATE":null,"SITE":"AFETR","REV_AT_EPOCH":"9942","TLE_LINE2":"2 47571  53.0563  17.7902 0001332  70.5447 289.5686 15.06401822 99427","EPHEMERIS_TYPE":"0","MEAN_MOTION":"15.06401822","RA_OF_ASC_NODE":"17.7902","ELEMENT_SET_NO":"999","NORAD_CAT_ID":"47571","BSTAR":"0.00013142000000","ARG_OF_PERICENTER":"70.5447","MEAN_MOTION_DDOT":"0.0000000000000","CLASSIFICATION_TYPE":"U","INCLINATION":"53.0563","MEAN_MOTION_DOT":"0.00001677","SEMIMAJOR_AXIS":"6925.343","LAUNCH_DATE":"2021-02-04","OBJECT_NAME":"STARLINK-1970","REF_FRAME":"TEME","GP_ID":"218399573","CENTER_NAME":"EARTH","TIME_SYSTEM":"UTC","COUNTRY_CODE":"US","MEAN_ANOMALY":"289.5686","EPOCH":"2022-11-21T10:09:36.891360","FILE":"3666297","PERIOD":"95.592","RCS_SIZE":"LARGE","ECCENTRICITY":"0.00013320","PERIAPSIS":"546.286","OBJECT_ID":"2021-009Z","APOAPSIS":"548.130","TLE_LINE1":"1 47571U 21009Z   22325.42334365  .00001677  00000-0  13142-3 0  9995"},{"EPHEMERIS_TYPE":"0","MEAN_MOTION":"15.06399368","OBJECT_TYPE":"PAYLOAD","MEAN_ELEMENT_THEORY":"SGP4","DECAY_DATE":null,"SITE":"AFETR","REV_AT_EPOCH":"9944","TLE_LINE2":"2 47572  53.0551  17.2760 0001419 101.2943 258.8205 15.06399368 99440","REF_FRAME":"TEME","GP_ID":"218398321","CENTER_NAME":"EARTH","TIME_SYSTEM":"UTC","COUNTRY_CODE":"US","EPOCH":"2022-11-21T12:54:09.422784","MEAN_ANOMALY":"258.8205","FILE":"3666297","RCS_SIZE":"LARGE","PERIOD":"95.592","ECCENTRICITY":"0.00014190","PERIAPSIS":"546.233","OBJECT_ID":"2021-009AA","APOAPSIS":"548.198","TLE_LINE1":"1 47572U 21009AA  22325.53760906  .00004214  00000-0  30161-3 0  9992","RA_OF_ASC_NODE":"17.2760","ELEMENT_SET_NO":"999","NORAD_CAT_ID":"47572","BSTAR":"0.00030161000000","MEAN_MOTION_DDOT":"0.0000000000000","ARG_OF_PERICENTER":"101.2943","CLASSIFICATION_TYPE":"U","INCLINATION":"53.0551","MEAN_MOTION_DOT":"0.00004214","SEMIMAJOR_AXIS":"6925.350","LAUNCH_DATE":"2021-02-04","OBJECT_NAME":"STARLINK-1971"},{"FILE":"3666658","MEAN_ANOMALY":"283.5451","COUNTRY_CODE":"US","EPOCH":"2022-11-21T20:20:00.641760","CENTER_NAME":"EARTH","TIME_SYSTEM":"UTC","GP_ID":"218432293","REF_FRAME":"TEME","OBJECT_ID":"2021-009AB","APOAPSIS":"548.095","TLE_LINE1":"1 47573U 21009AB  22325.84722965  .00000812  00000-0  73409-4 0  9993","ECCENTRICITY":"0.00012820","RCS_SIZE":"LARGE","PERIOD":"95.592","PERIAPSIS":"546.320","NORAD_CAT_ID":"47573","BSTAR":"0.00007340900000","ELEMENT_SET_NO":"999","RA_OF_ASC_NODE":"15.8742","OBJECT_NAME":"STARLINK-1975","MEAN_MOTION_DOT":"0.00000812","SEMIMAJOR_AXIS":"6925.343","LAUNCH_DATE":"2021-02-04","INCLINATION":"53.0548","MEAN_MOTION_DDOT":"0.0000000000000","ARG_OF_PERICENTER":"76.5681","CLASSIFICATION_TYPE":"U","MEAN_MOTION":"15.06401938","EPHEMERIS_TYPE":"0","OBJECT_TYPE":"PAYLOAD","MEAN_ELEMENT_THEORY":"SGP4","TLE_LINE2":"2 47573  53.0548  15.8742 0001282  76.5681 283.5451 15.06401938 99481","REV_AT_EPOCH":"9948","DECAY_DATE":null,"SITE":"AFETR"},{"ELEMENT_SET_NO":"999","NORAD_CAT_ID":"47574","BSTAR":"0.00012598000000","RA_OF_ASC_NODE":"47.0017","SEMIMAJOR_AXIS":"6925.350","MEAN_MOTION_DOT":"0.00001595","LAUNCH_DATE":"2021-02-04","OBJECT_NAME":"STARLINK-1976","MEAN_MOTION_DDOT":"0.0000000000000","ARG_OF_PERICENTER":"77.8203","CLASSIFICATION_TYPE":"U","INCLINATION":"53.0557","COUNTRY_CODE":"US","EPOCH":"2022-11-21T14:20:24.229824","MEAN_ANOMALY":"282.2937","FILE":"3666658","REF_FRAME":"TEME","GP_ID":"218433041","TIME_SYSTEM":"UTC","CENTER_NAME":"EARTH","PERIOD":"95.592","RCS_SIZE":"LARGE","ECCENTRICITY":"0.00013420","PERIAPSIS":"546.286","OBJECT_ID":"2021-009AC","APOAPSIS":"548.145","TLE_LINE1":"1 47574U 21009AC  22325.59750266  .00001595  00000-0  12598-3 0  9991","OBJECT_TYPE":"PAYLOAD","MEAN_ELEMENT_THEORY":"SGP4","TLE_LINE2":"2 47574  53.0557  47.0017 0001342  77.8203 282.2937 15.06399458 99023","DECAY_DATE":null,"SITE":"AFETR","REV_AT_EPOCH":"9902","MEAN_MOTION":"15.06399458","EPHEMERIS_TYPE":"0"},{"INCLINATION":"53.0562","CLASSIFICATION_TYPE":"U","MEAN_MOTION_DDOT":"0.0000000000000","ARG_OF_PERICENTER":"73.8729","OBJECT_NAME":"STARLINK-1977","LAUNCH_DATE":"2021-02-04","MEAN_MOTION_DOT":"-0.00001112","SEMIMAJOR_AXIS":"6925.369","RA_OF_ASC_NODE":"47.3547","BSTAR":"-0.00005578100000","NORAD_CAT_ID":"47575","ELEMENT_SET_NO":"999","TLE_LINE1":"1 47575U 21009AD  22325.52010407 -.00001112  00000-0 -55781-4 0  9990","APOAPSIS":"548.268","OBJECT_ID":"2021-009AD","PERIAPSIS":"546.200","ECCENTRICITY":"0.00014930","RCS_SIZE":"LARGE","PERIOD":"95.593","TIME_SYSTEM":"UTC","CENTER_NAME":"EARTH","REF_FRAME":"TEME","GP_ID":"218399073","FILE":"3666297","MEAN_ANOMALY":"286.2424","COUNTRY_CODE":"US","EPOCH":"2022-11-21T12:28:56.991648","REV_AT_EPOCH":"9901","SITE":"AFETR","DECAY_DATE":null,"TLE_LINE2":"2 47575  53.0562  47.3547 0001493  73.8729 286.2424 15.06393364 99011","MEAN_ELEMENT_THEORY":"SGP4","OBJECT_TYPE":"PAYLOAD","EPHEMERIS_TYPE":"0","MEAN_MOTION":"15.06393364"},{"DECAY_DATE":null,"SITE":"AFETR","REV_AT_EPOCH":"9956","TLE_LINE2":"2 47576  53.0562   7.8070 0001548  71.8968 288.2189 15.06406748 99569","OBJECT_TYPE":"PAYLOAD","MEAN_ELEMENT_THEORY":"SGP4","EPHEMERIS_TYPE":"0","MEAN_MOTION":"15.06406748","MEAN_MOTION_DDOT":"0.0000000000000","ARG_OF_PERICENTER":"71.8968","CLASSIFICATION_TYPE":"U","INCLINATION":"53.0562","MEAN_MOTION_DOT":"-0.00002699","SEMIMAJOR_AXIS":"6925.328","LAUNCH_DATE":"2021-02-04","OBJECT_NAME":"STARLINK-1978","RA_OF_ASC_NODE":"7.8070","ELEMENT_SET_NO":"999","NORAD_CAT_ID":"47576","BSTAR":"-0.00016236000000","PERIOD":"95.592","RCS_SIZE":"LARGE","ECCENTRICITY":"0.00015480","PERIAPSIS":"546.121","OBJECT_ID":"2021-009AE","APOAPSIS":"548.265","TLE_LINE1":"1 47576U 21009AE  22325.42057707 -.00002699  00000-0 -16236-3 0  9996","REF_FRAME":"TEME","GP_ID":"218397821","CENTER_NAME":"EARTH","TIME_SYSTEM":"UTC","MEAN_ANOMALY":"288.2189","COUNTRY_CODE":"US","EPOCH":"2022-11-21T10:05:37.858848","FILE":"3666297"},{"EPHEMERIS_TYPE":"0","MEAN_MOTION":"15.06389717","SITE":"AFETR","DECAY_DATE":null,"REV_AT_EPOCH":"9937","TLE_LINE2":"2 47577  53.0567  22.3208 0001380  73.4285 286.6856 15.06389717 99372","MEAN_ELEMENT_THEORY":"SGP4","OBJECT_TYPE":"PAYLOAD","PERIAPSIS":"546.289","RCS_SIZE":"LARGE","PERIOD":"95.593","ECCENTRICITY":"0.00013800","TLE_LINE1":"1 47577U 21009AF  22325.52793748  .00000968  00000-0  83909-4 0  9997","APOAPSIS":"548.201","OBJECT_ID":"2021-009AF","REF_FRAME":"TEME","GP_ID":"218398572","TIME_SYSTEM":"UTC","CENTER_NAME":"EARTH","EPOCH":"2022-11-21T12:40:13.798272","COUNTRY_CODE":"US","MEAN_ANOMALY":"286.6856","FILE":"3666297","CLASSIFICATION_TYPE":"U","MEAN_MOTION_DDOT":"0.0000000000000","ARG_OF_PERICENTER":"73.4285","INCLINATION":"53.0567","LAUNCH_DATE":"2021-02-04","SEMIMAJOR_AXIS":"6925.380","MEAN_MOTION_DOT":"0.00000968","OBJECT_NAME":"STARLINK-1979","RA_OF_ASC_NODE":"22.3208","ELEMENT_SET_NO":"999","BSTAR":"0.00008390900000","NORAD_CAT_ID":"47577"}];
